STARLINK-33770          
1 63906C 25095S   26108.15256944  .00007194  00000+0  26058-3 0  1084
2 63906  43.0006 313.0895 0001206 275.7543 174.7869 15.27574382    17
STARLINK-34106          
1 63907C 25095T   26108.14006944  .00012547  00000+0  45441-3 0  1082
2 63907  43.0003 313.1091 0001566 279.0267 123.9175 15.27576021    11
STARLINK-34083          
1 63908C 25095U   26108.17409722 -.00009029  00000+0 -32706-3 0  1080
2 63908  43.0005 313.5513 0001446 274.4977  54.0230 15.27577831    17
STARLINK-34066          
1 63909C 25095V   26108.09145833  .00041734  00000+0  15119-2 0  1087
2 63909  43.0023 313.8320 0001882 267.4165  43.9584 15.27549883    17
STARLINK-34071          
1 63910C 25095W   26108.11437500  .00032938  00000+0  11932-2 0  1082
2 63910  43.0013 313.7872 0001548 277.3223 124.8401 15.27557146    11
STARLINK-34038          
1 63911C 25095X   26108.14076389  .00005165  00000+0  18711-3 0  1085
2 63911  43.0027 313.4481 0001816 274.0399 351.2290 15.27571234    12
STARLINK-34031          
1 63912C 25095Y   26108.12409722  .00025838  00000+0  93563-3 0  1082
2 63912  43.0025 313.5940 0001598 274.1776 238.0987 15.27573571    10
STARLINK-34070          
1 63913C 25095Z   26108.13729167  .00006242  00000+0  22612-3 0  1087
2 63913  43.0028 313.4140 0001434 273.5618 353.8215 15.27568374    17
STARLINK-34068          
1 63914C 25095AA  26108.18243056 -.00015945  00000+0 -57750-3 0  1084
2 63914  43.0020 313.0205 0001411 267.8377 304.6626 15.27587690    13
STARLINK-34076          
1 63915C 25095AB  26108.15326389  .00003535  00000+0  12804-3 0  1084
2 63915  43.0026 313.2710 0001414 273.1681 103.3972 15.27573645    17
STARLINK-33910          
1 63916C 25095AC  26108.17409722 -.00013013  00000+0 -47102-3 0  1083
2 63916  43.0008 312.8638 0001503 271.2090 340.3268 15.27607316    18
STARLINK-34075          
1 63917C 25095AD  26108.15465278  .00006144  00000+0  22252-3 0  1084
2 63917  43.0013 313.1258 0001131 273.5837 167.2126 15.27576717    17
STARLINK-34012          
1 63926C 25098A   26108.18173611  .00016042  00000+0  13441-2 0  1084
2 63926  70.0012 175.0078 0003603 266.5161 140.3850 14.98329465    18
STARLINK-33956          
1 63927C 25098B   26108.16993056  .00016566  00000+0  13880-2 0  1084
2 63927  70.0012 174.7558 0003668 266.3246 324.5251 14.98330294    14
STARLINK-33997          
1 63928C 25098C   26108.13104167  .00044521  00000+0  37296-2 0  1088
2 63928  70.0009 175.2033 0003265 268.3062 157.6164 14.98322012    13
STARLINK-33989          
1 63929C 25098D   26108.10326389  .00057130  00000+0  47874-2 0  1081
2 63929  70.0008 175.1300 0003592 266.3906 144.0133 14.98303122    14
STARLINK-33980          
1 63930C 25098E   26108.17895833 -.00013551  00000+0 -11370-2 0  1088
2 63930  70.0011 175.0651 0003480 267.9689  78.9513 14.98289962    11
STARLINK-33994          
1 63931C 25098F   26108.12965278  .00037400  00000+0  31331-2 0  1081
2 63931  70.0009 175.0383 0003423 265.5032 309.6583 14.98325216    18
STARLINK-33971          
1 63932C 25098G   26108.12618056  .00045095  00000+0  37778-2 0  1081
2 63932  70.0010 175.1736 0003653 268.1661 175.7566 14.98319959    16
STARLINK-33877          
1 63933C 25098H   26108.14909722  .00032246  00000+0  27019-2 0  1088
2 63933  70.0015 174.8272 0003677 266.6202 188.4977 14.98319679    19
STARLINK-33895          
1 63934C 25098J   26108.17062500  .00014671  00000+0  12294-2 0  1087
2 63934  70.0011 174.8329 0003400 267.0285 259.1036 14.98324382    18
STARLINK-34005          
1 63935C 25098K   26108.18868056  .00012210  00000+0  10223-2 0  1086
2 63935  70.0011 175.0325 0003639 264.3287 134.1119 14.98359213    19
STARLINK-34027          
1 63936C 25098L   26108.16715278  .00018869  00000+0  15810-2 0  1085
2 63936  70.0011 174.7368 0003553 268.7354 328.7566 14.98328013    12
STARLINK-34035          
1 63937C 25098M   26108.17687500  .00012576  00000+0  10537-2 0  1083
2 63937  70.0009 174.8924 0003648 267.1315 225.2268 14.98331272    15
STARLINK-33988          
1 63938C 25098N   26108.17965278  .00015219  00000+0  12751-2 0  1082
2 63938  70.0011 174.9614 0004249 267.0730 173.6255 14.98330723    16
STARLINK-34020          
1 63939C 25098P   26108.16090278  .00022296  00000+0  18678-2 0  1088
2 63939  70.0012 174.8305 0004169 265.7629 230.4308 14.98329961    10
STARLINK-34021          
1 63940C 25098Q   26108.17131944  .00019461  00000+0  16304-2 0  1081
2 63940  70.0011 175.1010 0003622 265.9472  16.3731 14.98330827    13
STARLINK-34004          
1 63941C 25098R   26108.09840278  .00056793  00000+0  47574-2 0  1082
2 63941  70.0009 175.0320 0003797 266.4401 207.7215 14.98316789    19
STARLINK-34014          
1 63942C 25098S   26108.14770833  .00033483  00000+0  28053-2 0  1080
2 63942  70.0008 174.9385 0003586 266.7153  91.7692 14.98321375    18
STARLINK-33985          
1 63943C 25098T   26108.12618056  .00045360  00000+0  38009-2 0  1086
2 63943  70.0015 174.8812 0003693 265.8623  66.5767 14.98309845    13
STARLINK-33996          
1 63944C 25098U   26108.14979167  .00029972  00000+0  25112-2 0  1084
2 63944  70.0010 175.0359 0003669 266.6367  12.1529 14.98323442    17
STARLINK-34036          
1 63945C 25098V   26108.18034722  .00017213  00000+0  14424-2 0  1087
2 63945  70.0012 175.0105 0003572 270.2632 128.2176 14.98324634    19
STARLINK-34039          
1 63946C 25098W   26108.11298611  .00052806  00000+0  44258-2 0  1085
2 63946  70.0010 175.1544 0003663 265.6128 152.2170 14.98298848    13
STARLINK-34034          
1 63947C 25098X   26108.14701389  .00030249  00000+0  25346-2 0  1084
2 63947  70.0010 175.0677 0003699 265.9911 336.1958 14.98320216    14
STARLINK-33983          
1 63948C 25098Y   26108.12270833  .00040818  00000+0  34204-2 0  1084
2 63948  70.0008 175.0024 0003567 267.1500 315.6399 14.98312148    16
STARLINK-33993          
1 63949C 25098Z   26108.16715278  .00018162  00000+0  15213-2 0  1082
2 63949  70.0013 174.7526 0003534 272.6932 302.2605 14.98339204    14
STARLINK-33962          
1 63950C 25098AA  26108.14076389  .00038414  00000+0  32183-2 0  1082
2 63950  70.0011 174.8784 0004283 265.2158 123.3424 14.98318374    17
STARLINK-33998          
1 63951C 25098AB  26108.12479167  .00042461  00000+0  35579-2 0  1081
2 63951  70.0010 174.9454 0003912 267.6562  12.2674 14.98312218    19
STARLINK-34159          
1 63952C 25099A   26108.14979167  .00008551  00000+0  30979-3 0  1082
2 63952  43.0006 313.6658 0001589 275.2114 237.1725 15.27567561    10
STARLINK-34137          
1 63953C 25099B   26108.12548611  .00027037  00000+0  97910-3 0  1085
2 63953  43.0019 313.5649 0001792 275.6973 201.8973 15.27570976    14
STARLINK-33974          
1 63954C 25099C   26108.16437500 -.00003217  00000+0 -11659-3 0  1086
2 63954  43.0008 313.6837 0001742 276.7709 273.4929 15.27562787    14
STARLINK-34170          
1 63955C 25099D   26108.16506944 -.00005131  00000+0 -18586-3 0  1089
2 63955  43.0009 313.6299 0001435 269.8613 305.4099 15.27580852    11
STARLINK-34187          
1 63956C 25099E   26108.13590278  .00020207  00000+0  73175-3 0  1084
2 63956  43.0002 313.7099 0001487 272.0059 178.0394 15.27574556    17
STARLINK-34142          
1 63957C 25099F   26108.14631944  .00011089  00000+0  40161-3 0  1089
2 63957  43.0003 313.5989 0001589 271.0886 257.5461 15.27573909    14
STARLINK-34144          
1 63958C 25099G   26108.09006944  .00041069  00000+0  14879-2 0  1087
2 63958  43.0007 313.8668 0001702 273.1511 327.0202 15.27549591    17
STARLINK-34099          
1 63959C 25099H   26108.08451389  .00048968  00000+0  17750-2 0  1080
2 63959  43.0008 314.0508 0001615 264.9794 241.0159 15.27528692    14
STARLINK-34107          
1 63960C 25099J   26108.10118056  .00033053  00000+0  11972-2 0  1085
2 63960  43.0009 313.7516 0001619 271.2939  51.2749 15.27561440    12
STARLINK-34121          
1 63961C 25099K   26108.09215278  .00037658  00000+0  13639-2 0  1085
2 63961  43.0023 313.7184 0001756 275.1152  33.1135 15.27562329    17
STARLINK-34103          
1 63962C 25099L   26108.17826389 -.00003868  00000+0 -14012-3 0  1081
2 63962  43.0023 313.1796 0001560 270.2734 173.1629 15.27576943    16
STARLINK-33801          
1 63963C 25099M   26108.14909722  .00002393  00000+0  86665-4 0  1086
2 63963  43.0028 313.2384 0001409 272.6487  52.7812 15.27578854    18
STARLINK-34135          
1 63964C 25099N   26108.12895833  .00017344  00000+0  62791-3 0  1087
2 63964  43.0028 313.4049 0001611 277.4834 275.7873 15.27585431    16
STARLINK-34147          
1 63965C 25099P   26108.16298611  .00001191  00000+0  43155-4 0  1080
2 63965  43.0027 313.1075 0001418 276.9421 146.1711 15.27574763    11
STARLINK-33960          
1 63966C 25099Q   26108.15951389  .00003195  00000+0  11571-3 0  1080
2 63966  43.0024 313.0750 0001486 273.7358 151.4952 15.27574449    14
STARLINK-34153          
1 63967C 25099R   26108.14215278  .00008418  00000+0  30487-3 0  1080
2 63967  43.0016 313.0871 0001463 272.8942  92.1230 15.27576899    15
STARLINK-33963          
1 63968C 25099S   26108.12756944  .00013597  00000+0  49233-3 0  1082
2 63968  43.0022 313.2216 0001488 267.1396 356.2233 15.27581762    17
STARLINK-34112          
1 63969C 25099T   26108.11090278  .00025357  00000+0  91850-3 0  1082
2 63969  43.0009 313.2132 0001297 272.5629 301.6263 15.27562850    11
STARLINK-34084          
1 63970C 25099U   26108.13104167  .00014174  00000+0  51323-3 0  1085
2 63970  43.0004 313.0481 0001259 271.7078  74.5583 15.27582016    17
STARLINK-34138          
1 63971C 25099V   26108.11715278  .00026786  00000+0  97037-3 0  1089
2 63971  43.0009 310.0598 0001501 276.6148 187.8352 15.27559022    14
STARLINK-34115          
1 63972C 25099W   26108.17131944 -.00004825  00000+0 -17477-3 0  1080
2 63972  43.0022 309.6225 0001694 274.3664 184.8902 15.27576968    18
